NORAD_CAT_ID,OBJECT_NAME,OBJECT_TYPE,EPOCH,MEAN_MOTION,ECCENTRICITY,INCLINATION,RA_OF_ASC_NODE,ARG_OF_PERICENTER,MEAN_ANOMALY,BSTAR,MEAN_MOTION_DOT,MEAN_MOTION_DDOT,TLE_LINE0,TLE_LINE1,TLE_LINE2,SEMIMAJOR_AXIS,PERIOD,APOGEE,PERIGEE,DECAYED
53262.0,STARLINK-4085,PAYLOAD,2023-01-03 06:56:37,15.08829016,0.000155,53.222,7.8434,38.6823,321.428,8.5826e-05,1.078e-05,0.0,0 STARLINK-4085,1 53262U 22086W   23003.28932558  .00001078  00000-0  85826-4 0  9995,2 53262  53.2220   7.8434 0001550  38.6823 321.4280 15.08829016 25558,6917.9140000000025,95.438,540.851,538.707,0.0
53262.0,STARLINK-4085,PAYLOAD,2023-01-04 06:47:24,15.0883622,0.000169,53.2205,3.3835,44.6928,315.4201,0.0001942,2.804e-05,0.0,0 STARLINK-4085,1 53262U 22086W   23004.28292529  .00002804  00000-0  19420-3 0  9997,2 53262  53.2205   3.3835 0001690  44.6928 315.4201 15.08836220 25703,6917.892,95.438,540.9259999999998,538.5880000000002,0.0
53262.0,STARLINK-4085,PAYLOAD,2023-01-04 16:19:43,15.08832497,0.0001716,53.2213,1.5986,58.6543,301.4617,0.00049559,7.606e-05,0.0,0 STARLINK-4085,1 53262U 22086W   23004.68036389  .00007606  00000-0  49559-3 0  9992,2 53262  53.2213   1.5986 0001716  58.6543 301.4617 15.08832497 25940,6917.903,95.438,540.955,538.581,0.0
53262.0,STARLINK-4085,PAYLOAD,2023-01-05 06:38:10,15.08857047,0.0001749,53.2198,358.9232,51.7019,308.413,0.00030379,4.552e-05,0.0,0 STARLINK-4085,1 53262U 22086W   23005.27651209  .00004552  00000-0  30379-3 0  9999,2 53262  53.2198 358.9232 0001749  51.7019 308.4130 15.08857047 25858,6917.828,95.436,540.903,538.4830000000002,0.0
53262.0,STARLINK-4085,PAYLOAD,2023-01-05 09:48:56,15.08858968,0.000174,53.2197,358.3288,51.3313,308.7835,0.00032698,4.922e-05,0.0,0 STARLINK-4085,1 53262U 22086W   23005.40899093  .00004922  00000-0  32698-3 0  9996,2 53262  53.2197 358.3288 0001740  51.3313 308.7835 15.08858968 26057,6917.821999999999,95.436,540.891,538.484,0.0
53262.0,STARLINK-4085,PAYLOAD,2023-01-05 16:10:29,15.08858663,0.0001836,53.2188,357.1387,48.6281,311.4869,0.0001851999999999,2.662e-05,0.0,0 STARLINK-4085,1 53262U 22086W   23005.67394757  .00002662  00000-0  18520-3 0  9999,2 53262  53.2188 357.1387 0001836  48.6281 311.4869 15.08858663 26097,6917.823,95.436,540.9580000000002,538.418,0.0
53262.0,STARLINK-4085,PAYLOAD,2023-01-06 08:04:21,15.08834063,0.0001795,53.2204,354.1666,46.5342,313.5799,-0.00018838,-3.284e-05,0.0,0 STARLINK-4085,1 53262U 22086W   23006.33635860 -.00003284  00000-0 -18838-3 0  9991,2 53262  53.2204 354.1666 0001795  46.5342 313.5799 15.08834063 26017,6917.899,95.438,541.005,538.5219999999998,0.0
53262.0,STARLINK-4085,PAYLOAD,2023-01-06 23:58:12,15.08834603,0.0001694,53.2202,351.1928,46.3584,313.7548,-0.0001449,-2.593e-05,0.0,0 STARLINK-4085,1 53262U 22086W   23006.99875672 -.00002593  00000-0 -14490-3 0  9992,2 53262  53.2202 351.1928 0001694  46.3584 313.7548 15.08834603 26291,6917.897,95.438,540.934,538.59,0.0
53262.0,STARLINK-4085,PAYLOAD,2023-01-07 07:55:07,15.08848236,0.0001623,53.2177,349.7034,43.4468,316.6652,0.00019253,2.778e-05,0.0,0 STARLINK-4085,1 53262U 22086W   23007.32995237  .00002778  00000-0  19253-3 0  9995,2 53262  53.2177 349.7034 0001623  43.4468 316.6652 15.08848236 26165,6917.855,95.437,540.8430000000002,538.597,0.0
53262.0,STARLINK-4085,PAYLOAD,2023-01-07 15:52:04,15.08832183,0.0002809,53.2193,348.2181,63.4046,296.7234,0.00016144,2.281e-05,0.0,0 STARLINK-4085,1 53262U 22086W   23007.66116480  .00002281  00000-0  16144-3 0  9992,2 53262  53.2193 348.2181 0002809  63.4046 296.7234 15.08832183 26215,6917.904,95.438,541.7130000000002,537.826,0.0
53262.0,STARLINK-4085,PAYLOAD,2023-01-07 22:13:37,15.0883726,0.000224,53.2177,347.0288,57.6661,302.4548,0.00027513,4.093e-05,0.0,0 STARLINK-4085,1 53262U 22086W   23007.92612269  .00004093  00000-0  27513-3 0  9992,2 53262  53.2177 347.0288 0002240  57.6661 302.4548 15.08837260 26437,6917.889,95.438,541.303,538.2040000000002,0.0
53262.0,STARLINK-4085,PAYLOAD,2023-01-08 07:45:55,15.08838471,0.0001767,53.2174,345.2438,47.997,312.1172,0.00027844,4.146e-05,0.0,0 STARLINK-4085,1 53262U 22086W   23008.32356295  .00004146  00000-0  27844-3 0  9997,2 53262  53.2174 345.2438 0001767  47.9970 312.1172 15.08838471 26491,6917.885,95.438,540.972,538.528,0.0
53262.0,STARLINK-4085,PAYLOAD,2023-01-08 22:04:24,15.08842146,0.0001668,53.2194,342.5681,52.3067,307.8076,0.0002715,4.036e-05,0.0,0 STARLINK-4085,1 53262U 22086W   23008.91972457  .00004036  00000-0  27150-3 0  9994,2 53262  53.2194 342.5681 0001668  52.3067 307.8076 15.08842146 26588,6917.874,95.437,540.893,538.585,0.0
53262.0,STARLINK-4085,PAYLOAD,2023-01-09 04:25:56,15.0884235,0.0001686,53.2195,341.3786,52.2765,307.838,0.00028044,4.178e-05,0.0,0 STARLINK-4085,1 53262U 22086W   23009.18468531  .00004178  00000-0  28044-3 0  9997,2 53262  53.2195 341.3786 0001686  52.2765 307.8380 15.08842350 26446,6917.873000000001,95.437,540.905,538.572,0.0
53262.0,STARLINK-4085,PAYLOAD,2023-01-09 21:55:11,15.08846506,0.0001769,53.2195,338.1085,53.7782,306.3374,0.00030892,4.633e-05,0.0,0 STARLINK-4085,1 53262U 22086W   23009.91332452  .00004633  00000-0  30892-3 0  9990,2 53262  53.2195 338.1085 0001769  53.7782 306.3374 15.08846506 26735,6917.861,95.437,540.9490000000002,538.502,0.0
53262.0,STARLINK-4085,PAYLOAD,2023-01-10 07:27:30,15.08838186,0.0002003,53.2175,336.3261,52.4753,307.6421,0.00019392,2.799e-05,0.0,0 STARLINK-4085,1 53262U 22086W   23010.31076900  .00002799  00000-0  19392-3 0  9992,2 53262  53.2175 336.3261 0002003  52.4753 307.6421 15.08838186 26614,6917.886,95.438,541.137,538.365,0.0
53262.0,STARLINK-4085,PAYLOAD,2023-01-10 21:45:58,15.08842037,0.0001844,53.2193,333.6493,51.8873,308.2285,0.0001873,2.694e-05,0.0,0 STARLINK-4085,1 53262U 22086W   23010.90692824  .00002694  00000-0  18730-3 0  9995,2 53262  53.2193 333.6493 0001844  51.8873 308.2285 15.08842037 26883,6917.874,95.437,541.015,538.464,0.0
53262.0,STARLINK-4085,PAYLOAD,2023-01-11 13:39:50,15.08834865,0.0001776999999999,53.2205,330.675,56.6503,303.4659,8.842299999999999e-05,1.119e-05,0.0,0 STARLINK-4085,1 53262U 22086W   23011.56933173  .00001119  00000-0  88423-4 0  9991,2 53262  53.2205 330.6750 0001777  56.6503 303.4659 15.08834865 26802,6917.896,95.438,540.99,538.5319999999998,0.0
53262.0,STARLINK-4085,PAYLOAD,2023-01-11 21:36:45,15.08831182,0.0001383,53.2194,329.1888,61.7387,298.3744,2.4917e-05,1.09e-06,0.0,0 STARLINK-4085,1 53262U 22086W   23011.90053089  .00000109  00000-0  24917-4 0  9994,2 53262  53.2194 329.1888 0001383  61.7387 298.3744 15.08831182 27036,6917.906999999998,95.438,540.729,538.816,0.0
53262.0,STARLINK-4085,PAYLOAD,2023-01-12 16:41:24,15.08833459,0.0001151,53.2193,325.6205,62.5978,297.5131,0.00023655,3.478e-05,0.0,0 STARLINK-4085,1 53262U 22086W   23012.69541748  .00003478  00000-0  23655-3 0  9994,2 53262  53.2193 325.6205 0001151  62.5978 297.5131 15.08833459 26979,6917.9,95.438,540.562,538.969,0.0
53262.0,STARLINK-4085,PAYLOAD,2023-01-12 21:27:33,15.08825787,0.0001089,53.2196,324.7292,53.0667,307.0425,0.00015741,2.217e-05,0.0,0 STARLINK-4085,1 53262U 22086W   23012.89414101  .00002217  00000-0  15741-3 0  9995,2 53262  53.2196 324.7292 0001089  53.0667 307.0425 15.08825787 27180,6917.924,95.438,540.5419999999998,539.035,0.0
53262.0,STARLINK-4085,PAYLOAD,2023-01-13 13:21:25,15.08835471,0.0001296,53.2184,321.754,84.1004,276.0136,0.00034854,5.263e-05,0.0,0 STARLINK-4085,1 53262U 22086W   23013.55654225  .00005263  00000-0  34854-3 0  9992,2 53262  53.2184 321.7540 0001296  84.1004 276.0136 15.08835471 27286,6917.894,95.438,540.656,538.863,0.0
53262.0,STARLINK-4085,PAYLOAD,2023-01-14 05:15:16,15.08851869,0.0001312,53.2194,318.7814,87.78,272.3343,0.00051192,7.871e-05,0.0,0 STARLINK-4085,1 53262U 22086W   23014.21893871  .00007871  00000-0  51192-3 0  9999,2 53262  53.2194 318.7814 0001312  87.7800 272.3343 15.08851869 27209,6917.844,95.437,540.617,538.8009999999999,0.0
53262.0,STARLINK-4085,PAYLOAD,2023-01-15 05:06:03,15.0884265,0.0001754999999999,53.2181,314.3196,75.7271,284.3916,0.00016159,2.285e-05,0.0,0 STARLINK-4085,1 53262U 22086W   23015.21254160  .00002285  00000-0  16159-3 0  9990,2 53262  53.2181 314.3196 0001755  75.7271 284.3916 15.08842650 27353,6917.871999999999,95.437,540.951,538.523,0.0
53262.0,STARLINK-4085,PAYLOAD,2023-01-16 01:46:03,15.08856689,9.19e-05,53.2201,310.4541,83.8846,276.225,0.00054312,8.37e-05,0.0,0 STARLINK-4085,1 53262U 22086W   23016.07365299  .00008370  00000-0  54312-3 0  9995,2 53262  53.2201 310.4541 0000919  83.8846 276.2250 15.08856689 27488,6917.829000000001,95.436,540.33,539.059,0.0
53262.0,STARLINK-4085,PAYLOAD,2023-01-16 12:53:45,15.08852399,0.0001426999999999,53.2187,308.3738,87.24700000000001,272.8685,0.00023482,3.452e-05,0.0,0 STARLINK-4085,1 53262U 22086W   23016.53733052  .00003452  00000-0  23482-3 0  9992,2 53262  53.2187 308.3738 0001427  87.2470 272.8685 15.08852399 27737,6917.842,95.437,540.695,538.72,0.0
53262.0,STARLINK-4085,PAYLOAD,2023-01-16 19:15:18,15.08832773,0.0002004,53.219,307.1854,84.164,275.9581,-0.00021357,-3.685e-05,0.0,0 STARLINK-4085,1 53262U 22086W   23016.80230024 -.00003685  00000-0 -21357-3 0  9992,2 53262  53.2190 307.1854 0002004  84.1640 275.9581 15.08832773 27591,6917.901999999999,95.438,541.154,538.381,0.0
53262.0,STARLINK-4085,PAYLOAD,2023-01-17 01:36:51,15.08812749,6.32e-05,53.2181,305.9945,127.4289,232.676,-0.0006072,-9.931e-05,0.0,0 STARLINK-4085,1 53262U 22086W   23017.06726402 -.00009931  00000-0 -60720-3 0  9998,2 53262  53.2181 305.9945 0000632 127.4289 232.6760 15.08812749 27638,6917.964,95.439,540.266,539.391,0.0
53262.0,STARLINK-4085,PAYLOAD,2023-01-17 12:44:36,15.08770455,0.000127,53.2199,303.913,119.5146,240.5972,-0.00060669,-9.912e-05,0.0,0 STARLINK-4085,1 53262U 22086W   23017.53097243 -.00009912  00000-0 -60669-3 0  9995,2 53262  53.2199 303.9130 0001270 119.5146 240.5972 15.08770455 27702,6918.093000000001,95.442,540.837,539.0790000000001,0.0
